CCSDS_OMM_VERS = 2.0
CREATION_DATE  = 
ORIGINATOR     = 

OBJECT_NAME    = SL-3 R/B
OBJECT_ID      = 1982-079B
CENTER_NAME    = EARTH
REF_FRAME      = TEME
TIME_SYSTEM    = UTC
MEAN_ELEMENT_THEORY = SGP/SGP4

EPOCH          = 2026-01-25T14:36:57.923136
MEAN_MOTION    = 15.24182304
ECCENTRICITY   = .00245342
INCLINATION    = 81.1446
RA_OF_ASC_NODE = 243.9285
ARG_OF_PERICENTER = 313.9749
MEAN_ANOMALY   = 45.9460

EPHEMERIS_TYPE = 0
CLASSIFICATION_TYPE = U
NORAD_CAT_ID   = 13403
ELEMENT_SET_NO = 999
REV_AT_EPOCH   = 37113
BSTAR          = .32672221E-3
MEAN_MOTION_DOT = .8049E-4
MEAN_MOTION_DDOT = 0

CCSDS_OMM_VERS = 2.0
CREATION_DATE  = 
ORIGINATOR     = 

OBJECT_NAME    = SL-14 R/B
OBJECT_ID      = 1982-092B
CENTER_NAME    = EARTH
REF_FRAME      = TEME
TIME_SYSTEM    = UTC
MEAN_ELEMENT_THEORY = SGP/SGP4

EPOCH          = 2026-01-25T11:59:36.215808
MEAN_MOTION    = 14.86611646
ECCENTRICITY   = .00218635
INCLINATION    = 82.5683
RA_OF_ASC_NODE = 181.7842
ARG_OF_PERICENTER = 84.9584
MEAN_ANOMALY   = 337.5665

EPHEMERIS_TYPE = 0
CLASSIFICATION_TYPE = U
NORAD_CAT_ID   = 13553
ELEMENT_SET_NO = 999
REV_AT_EPOCH   = 32251
BSTAR          = .10749086E-3
MEAN_MOTION_DOT = .982E-5
MEAN_MOTION_DDOT = 0

CCSDS_OMM_VERS = 2.0
CREATION_DATE  = 
ORIGINATOR     = 

OBJECT_NAME    = SL-3 R/B
OBJECT_ID      = 1983-010B
CENTER_NAME    = EARTH
REF_FRAME      = TEME
TIME_SYSTEM    = UTC
MEAN_ELEMENT_THEORY = SGP/SGP4

EPOCH          = 2026-01-25T12:19:21.792288
MEAN_MOTION    = 15.44836957
ECCENTRICITY   = .00167882
INCLINATION    = 81.1021
RA_OF_ASC_NODE = 55.1277
ARG_OF_PERICENTER = 192.3167
MEAN_ANOMALY   = 167.7669

EPHEMERIS_TYPE = 0
CLASSIFICATION_TYPE = U
NORAD_CAT_ID   = 13819
ELEMENT_SET_NO = 999
REV_AT_EPOCH   = 35127
BSTAR          = .39973831E-3
MEAN_MOTION_DOT = .18887E-3
MEAN_MOTION_DDOT = 0

CCSDS_OMM_VERS = 2.0
CREATION_DATE  = 
ORIGINATOR     = 

OBJECT_NAME    = SL-3 R/B
OBJECT_ID      = 1983-075B
CENTER_NAME    = EARTH
REF_FRAME      = TEME
TIME_SYSTEM    = UTC
MEAN_ELEMENT_THEORY = SGP/SGP4

EPOCH          = 2026-01-25T14:41:22.845408
MEAN_MOTION    = 15.37240632
ECCENTRICITY   = .00231631
INCLINATION    = 97.6129
RA_OF_ASC_NODE = 28.6069
ARG_OF_PERICENTER = 28.7216
MEAN_ANOMALY   = 331.5298

EPHEMERIS_TYPE = 0
CLASSIFICATION_TYPE = U
NORAD_CAT_ID   = 14208
ELEMENT_SET_NO = 999
REV_AT_EPOCH   = 32353
BSTAR          = .47051667E-3
MEAN_MOTION_DOT = .17248E-3
MEAN_MOTION_DDOT = 0

CCSDS_OMM_VERS = 2.0
CREATION_DATE  = 
ORIGINATOR     = 

OBJECT_NAME    = COSMOS 1536
OBJECT_ID      = 1984-013A
CENTER_NAME    = EARTH
REF_FRAME      = TEME
TIME_SYSTEM    = UTC
MEAN_ELEMENT_THEORY = SGP/SGP4

EPOCH          = 2026-01-25T10:29:38.085504
MEAN_MOTION    = 15.23193500
ECCENTRICITY   = .00157162
INCLINATION    = 82.5468
RA_OF_ASC_NODE = 150.8105
ARG_OF_PERICENTER = 76.5264
MEAN_ANOMALY   = 283.7722

EPHEMERIS_TYPE = 0
CLASSIFICATION_TYPE = U
NORAD_CAT_ID   = 14699
ELEMENT_SET_NO = 999
REV_AT_EPOCH   = 26603
BSTAR          = .42522529E-3
MEAN_MOTION_DOT = .10123E-3
MEAN_MOTION_DDOT = 0

CCSDS_OMM_VERS = 2.0
CREATION_DATE  = 
ORIGINATOR     = 

OBJECT_NAME    = SL-14 R/B
OBJECT_ID      = 1984-027B
CENTER_NAME    = EARTH
REF_FRAME      = TEME
TIME_SYSTEM    = UTC
MEAN_ELEMENT_THEORY = SGP/SGP4

EPOCH          = 2026-01-25T15:55:59.888640
MEAN_MOTION    = 14.85930990
ECCENTRICITY   = .00193976
INCLINATION    = 82.5422
RA_OF_ASC_NODE = 285.3707
ARG_OF_PERICENTER = 113.7767
MEAN_ANOMALY   = 246.5487

EPHEMERIS_TYPE = 0
CLASSIFICATION_TYPE = U
NORAD_CAT_ID   = 14820
ELEMENT_SET_NO = 999
REV_AT_EPOCH   = 24124
BSTAR          = .88998807E-4
MEAN_MOTION_DOT = .803E-5
MEAN_MOTION_DDOT = 0

CCSDS_OMM_VERS = 2.0
CREATION_DATE  = 
ORIGINATOR     = 

OBJECT_NAME    = SL-8 R/B
OBJECT_ID      = 1985-006B
CENTER_NAME    = EARTH
REF_FRAME      = TEME
TIME_SYSTEM    = UTC
MEAN_ELEMENT_THEORY = SGP/SGP4

EPOCH          = 2026-01-25T14:37:41.346048
MEAN_MOTION    = 14.37757495
ECCENTRICITY   = .00197787
INCLINATION    = 74.0474
RA_OF_ASC_NODE = 340.4156
ARG_OF_PERICENTER = 265.7692
MEAN_ANOMALY   = 267.3125

EPHEMERIS_TYPE = 0
CLASSIFICATION_TYPE = U
NORAD_CAT_ID   = 15483
ELEMENT_SET_NO = 999
REV_AT_EPOCH   = 14783
BSTAR          = .19307457E-3
MEAN_MOTION_DOT = .556E-5
MEAN_MOTION_DDOT = 0

CCSDS_OMM_VERS = 2.0
CREATION_DATE  = 
ORIGINATOR     = 

OBJECT_NAME    = SL-12 R/B(2)
OBJECT_ID      = 1985-042D
CENTER_NAME    = EARTH
REF_FRAME      = TEME
TIME_SYSTEM    = UTC
MEAN_ELEMENT_THEORY = SGP/SGP4

EPOCH          = 2026-01-25T12:01:31.852704
MEAN_MOTION    = 14.21967660
ECCENTRICITY   = .00358266
INCLINATION    = 71.1072
RA_OF_ASC_NODE = 178.9696
ARG_OF_PERICENTER = 196.3840
MEAN_ANOMALY   = 221.5109

EPHEMERIS_TYPE = 0
CLASSIFICATION_TYPE = U
NORAD_CAT_ID   = 15772
ELEMENT_SET_NO = 999
REV_AT_EPOCH   = 10825
BSTAR          = .10327458E-3
MEAN_MOTION_DOT = .182E-5
MEAN_MOTION_DDOT = 0

CCSDS_OMM_VERS = 2.0
CREATION_DATE  = 
ORIGINATOR     = 

OBJECT_NAME    = SL-14 R/B
OBJECT_ID      = 1985-069B
CENTER_NAME    = EARTH
REF_FRAME      = TEME
TIME_SYSTEM    = UTC
MEAN_ELEMENT_THEORY = SGP/SGP4

EPOCH          = 2026-01-25T12:38:59.000064
MEAN_MOTION    = 14.86380136
ECCENTRICITY   = .00182023
INCLINATION    = 82.5245
RA_OF_ASC_NODE = 65.5316
ARG_OF_PERICENTER = 340.0448
MEAN_ANOMALY   = 20.0054

EPHEMERIS_TYPE = 0
CLASSIFICATION_TYPE = U
NORAD_CAT_ID   = 15945
ELEMENT_SET_NO = 999
REV_AT_EPOCH   = 16642
BSTAR          = .86241205E-4
MEAN_MOTION_DOT = .787E-5
MEAN_MOTION_DDOT = 0

CCSDS_OMM_VERS = 2.0
CREATION_DATE  = 
ORIGINATOR     = 

OBJECT_NAME    = SL-16 R/B
OBJECT_ID      = 1985-097B
CENTER_NAME    = EARTH
REF_FRAME      = TEME
TIME_SYSTEM    = UTC
MEAN_ELEMENT_THEORY = SGP/SGP4

EPOCH          = 2026-01-25T07:10:49.622016
MEAN_MOTION    = 14.16590879
ECCENTRICITY   = .0009006
INCLINATION    = 71.0001
RA_OF_ASC_NODE = 231.8998
ARG_OF_PERICENTER = 310.9427
MEAN_ANOMALY   = 222.0253

EPHEMERIS_TYPE = 0
CLASSIFICATION_TYPE = U
NORAD_CAT_ID   = 16182
ELEMENT_SET_NO = 999
REV_AT_EPOCH   = 8108
BSTAR          = .25952E-4
MEAN_MOTION_DOT = .4E-7
MEAN_MOTION_DDOT = 0

CCSDS_OMM_VERS = 2.0
CREATION_DATE  = 
ORIGINATOR     = 

OBJECT_NAME    = SL-14 R/B
OBJECT_ID      = 1986-006B
CENTER_NAME    = EARTH
REF_FRAME      = TEME
TIME_SYSTEM    = UTC
MEAN_ELEMENT_THEORY = SGP/SGP4

EPOCH          = 2026-01-25T12:22:09.153408
MEAN_MOTION    = 14.86746096
ECCENTRICITY   = .00780154
INCLINATION    = 82.5286
RA_OF_ASC_NODE = 300.3682
ARG_OF_PERICENTER = 56.4540
MEAN_ANOMALY   = 304.4096

EPHEMERIS_TYPE = 0
CLASSIFICATION_TYPE = U
NORAD_CAT_ID   = 16496
ELEMENT_SET_NO = 999
REV_AT_EPOCH   = 14279
BSTAR          = .13793294E-3
MEAN_MOTION_DOT = .1325E-4
MEAN_MOTION_DDOT = 0

CCSDS_OMM_VERS = 2.0
CREATION_DATE  = 
ORIGINATOR     = 

OBJECT_NAME    = COSMOS 1743
OBJECT_ID      = 1986-034A
CENTER_NAME    = EARTH
REF_FRAME      = TEME
TIME_SYSTEM    = UTC
MEAN_ELEMENT_THEORY = SGP/SGP4

EPOCH          = 2026-01-25T07:45:43.145856
MEAN_MOTION    = 15.55290420
ECCENTRICITY   = .0005385
INCLINATION    = 82.5345
RA_OF_ASC_NODE = 119.2239
ARG_OF_PERICENTER = 93.5912
MEAN_ANOMALY   = 266.5958

EPHEMERIS_TYPE = 0
CLASSIFICATION_TYPE = U
NORAD_CAT_ID   = 16719
ELEMENT_SET_NO = 999
REV_AT_EPOCH   = 17350
BSTAR          = .68043E-3
MEAN_MOTION_DOT = .46337E-3
MEAN_MOTION_DDOT = 0

