SL-3 R/B                
1 13403U 82079B   26025.60900374  .00008049  00000+0  32672-3 0  9994
2 13403  81.1446 243.9285 0024534 313.9749  45.9460 15.24182304371137
SL-14 R/B               
1 13553U 82092B   26025.49972472  .00000982  00000+0  10749-3 0  9999
2 13553  82.5683 181.7842 0021863  84.9584 337.5665 14.86611646322511
SL-3 R/B                
1 13819U 83010B   26025.51344667  .00018887  00000+0  39974-3 0  9991
2 13819  81.1021  55.1277 0016788 192.3167 167.7669 15.44836957351275
SL-3 R/B                
1 14208U 83075B   26025.61206997  .00017248  00000+0  47052-3 0  9995
2 14208  97.6129  28.6069 0023163  28.7216 331.5298 15.37240632323533
COSMOS 1536             
1 14699U 84013A   26025.43724636  .00010123  00000+0  42523-3 0  9990
2 14699  82.5468 150.8105 0015716  76.5264 283.7722 15.23193500266031
SL-14 R/B               
1 14820U 84027B   26025.66388760  .00000803  00000+0  88999-4 0  9992
2 14820  82.5422 285.3707 0019397 113.7767 246.5487 14.85930990241240
SL-8 R/B                
1 15483U 85006B   26025.60950632  .00000556  00000+0  19307-3 0  9994
2 15483  74.0474 340.4156 0019778 265.7692 267.3125 14.37757495147832
SL-12 R/B(2)            
1 15772U 85042D   26025.50106311  .00000182  00000+0  10327-3 0  9999
2 15772  71.1072 178.9696 0035826 196.3840 221.5109 14.21967660108251
SL-14 R/B               
1 15945U 85069B   26025.52707176  .00000787  00000+0  86241-4 0  9998
2 15945  82.5245  65.5316 0018202 340.0448  20.0054 14.86380136166424
SL-16 R/B               
1 16182U 85097B   26025.29918544  .00000004  00000+0  25952-4 0  9994
2 16182  71.0001 231.8998 0009006 310.9427 222.0253 14.16590879 81083
SL-14 R/B               
1 16496U 86006B   26025.51538372  .00001325  00000+0  13793-3 0  9991
2 16496  82.5286 300.3682 0078015  56.4540 304.4096 14.86746096142796
COSMOS 1743             
1 16719U 86034A   26025.32341604  .00046337  00000+0  68043-3 0  9999
2 16719  82.5345 119.2239 0005385  93.5912 266.5958 15.55290420173500
